[{"OBJECT_NAME":"STARLINK-30121","OBJECT_ID":"2023-067H","EPOCH":"2026-03-09T22:13:17.712480","MEAN_MOTION":15.02505,"ECCENTRICITY":7.559e-5,"INCLINATION":43.004,"RA_OF_ASC_NODE":273.3212,"ARG_OF_PERICENTER":289.4824,"MEAN_ANOMALY":70.5937,"EPHEMERIS_TYPE":0,"CLASSIFICATION_TYPE":"U","NORAD_CAT_ID":56695,"ELEMENT_SET_NO":999,"REV_AT_EPOCH":15569,"BSTAR":-0.00023730344,"MEAN_MOTION_DOT":-3.405e-5,"MEAN_MOTION_DDOT":0},{"OBJECT_NAME":"ELECTRON KICK STAGE R\/B","OBJECT_ID":"2024-172G","EPOCH":"2026-03-09T20:17:57.250464","MEAN_MOTION":14.97730495,"ECCENTRICITY":0.00502098,"INCLINATION":98.0041,"RA_OF_ASC_NODE":176.7734,"ARG_OF_PERICENTER":80.5411,"MEAN_ANOMALY":280.148,"EPHEMERIS_TYPE":0,"CLASSIFICATION_TYPE":"U","NORAD_CAT_ID":61226,"ELEMENT_SET_NO":999,"REV_AT_EPOCH":7982,"BSTAR":0.00056326684,"MEAN_MOTION_DOT":6.716e-5,"MEAN_MOTION_DDOT":0}]
